CCSDS_OMM_VERS = 2.0
CREATION_DATE  = 
ORIGINATOR     = 

OBJECT_NAME    = DELTA 2 R/B(1)
OBJECT_ID      = 1990-008B
CENTER_NAME    = EARTH
REF_FRAME      = TEME
TIME_SYSTEM    = UTC
MEAN_ELEMENT_THEORY = SGP/SGP4

EPOCH          = 2026-02-28T13:55:59.408544
MEAN_MOTION    = 15.54561026
ECCENTRICITY   = .00873392
INCLINATION    = 35.6028
RA_OF_ASC_NODE = 234.5751
ARG_OF_PERICENTER = 174.1685
MEAN_ANOMALY   = 186.0085

EPHEMERIS_TYPE = 0
CLASSIFICATION_TYPE = U
NORAD_CAT_ID   = 20453
ELEMENT_SET_NO = 999
REV_AT_EPOCH   = 92471
BSTAR          = .83949751E-3
MEAN_MOTION_DOT = .68399E-3
MEAN_MOTION_DDOT = 0

CCSDS_OMM_VERS = 2.0
CREATION_DATE  = 
ORIGINATOR     = 

OBJECT_NAME    = COSMOS 2058
OBJECT_ID      = 1990-010A
CENTER_NAME    = EARTH
REF_FRAME      = TEME
TIME_SYSTEM    = UTC
MEAN_ELEMENT_THEORY = SGP/SGP4

EPOCH          = 2026-03-01T07:19:59.765376
MEAN_MOTION    = 15.11231216
ECCENTRICITY   = .00099694
INCLINATION    = 82.4663
RA_OF_ASC_NODE = 55.6879
ARG_OF_PERICENTER = 11.2276
MEAN_ANOMALY   = 348.9175

EPHEMERIS_TYPE = 0
CLASSIFICATION_TYPE = U
NORAD_CAT_ID   = 20465
ELEMENT_SET_NO = 999
REV_AT_EPOCH   = 94097
BSTAR          = .28171654E-3
MEAN_MOTION_DOT = .4767E-4
MEAN_MOTION_DDOT = 0

CCSDS_OMM_VERS = 2.0
CREATION_DATE  = 
ORIGINATOR     = 

OBJECT_NAME    = SL-14 R/B
OBJECT_ID      = 1990-010B
CENTER_NAME    = EARTH
REF_FRAME      = TEME
TIME_SYSTEM    = UTC
MEAN_ELEMENT_THEORY = SGP/SGP4

EPOCH          = 2026-03-01T01:17:21.020064
MEAN_MOTION    = 14.83560199
ECCENTRICITY   = .00190965
INCLINATION    = 82.4994
RA_OF_ASC_NODE = 275.5028
ARG_OF_PERICENTER = 332.4095
MEAN_ANOMALY   = 27.6105

EPHEMERIS_TYPE = 0
CLASSIFICATION_TYPE = U
NORAD_CAT_ID   = 20466
ELEMENT_SET_NO = 999
REV_AT_EPOCH   = 92720
BSTAR          = .51301665E-4
MEAN_MOTION_DOT = .447E-5
MEAN_MOTION_DDOT = 0

CCSDS_OMM_VERS = 2.0
CREATION_DATE  = 
ORIGINATOR     = 

OBJECT_NAME    = SL-14 R/B
OBJECT_ID      = 1990-018B
CENTER_NAME    = EARTH
REF_FRAME      = TEME
TIME_SYSTEM    = UTC
MEAN_ELEMENT_THEORY = SGP/SGP4

EPOCH          = 2026-02-28T23:53:51.018432
MEAN_MOTION    = 14.82133420
ECCENTRICITY   = .00175351
INCLINATION    = 82.5189
RA_OF_ASC_NODE = 231.2166
ARG_OF_PERICENTER = 118.3932
MEAN_ANOMALY   = 241.9053

EPHEMERIS_TYPE = 0
CLASSIFICATION_TYPE = U
NORAD_CAT_ID   = 20511
ELEMENT_SET_NO = 999
REV_AT_EPOCH   = 92129
BSTAR          = .69613432E-4
MEAN_MOTION_DOT = .579E-5
MEAN_MOTION_DDOT = 0

CCSDS_OMM_VERS = 2.0
CREATION_DATE  = 
ORIGINATOR     = 

OBJECT_NAME    = HST
OBJECT_ID      = 1990-037B
CENTER_NAME    = EARTH
REF_FRAME      = TEME
TIME_SYSTEM    = UTC
MEAN_ELEMENT_THEORY = SGP/SGP4

EPOCH          = 2026-03-01T04:46:19.515936
MEAN_MOTION    = 15.29324944
ECCENTRICITY   = .00015625
INCLINATION    = 28.4699
RA_OF_ASC_NODE = 97.9157
ARG_OF_PERICENTER = 39.6890
MEAN_ANOMALY   = 320.3820

EPHEMERIS_TYPE = 0
CLASSIFICATION_TYPE = U
NORAD_CAT_ID   = 20580
ELEMENT_SET_NO = 999
REV_AT_EPOCH   = 77201
BSTAR          = .28359657E-3
MEAN_MOTION_DOT = .8534E-4
MEAN_MOTION_DDOT = 0

CCSDS_OMM_VERS = 2.0
CREATION_DATE  = 
ORIGINATOR     = 

OBJECT_NAME    = SL-16 R/B
OBJECT_ID      = 1990-046B
CENTER_NAME    = EARTH
REF_FRAME      = TEME
TIME_SYSTEM    = UTC
MEAN_ELEMENT_THEORY = SGP/SGP4

EPOCH          = 2026-03-01T03:26:37.556736
MEAN_MOTION    = 14.15015124
ECCENTRICITY   = .00160434
INCLINATION    = 71.0007
RA_OF_ASC_NODE = 315.8630
ARG_OF_PERICENTER = 311.1558
MEAN_ANOMALY   = 48.8180

EPHEMERIS_TYPE = 0
CLASSIFICATION_TYPE = U
NORAD_CAT_ID   = 20625
ELEMENT_SET_NO = 999
REV_AT_EPOCH   = 84718
BSTAR          = -.43118578E-4
MEAN_MOTION_DOT = -.131E-5
MEAN_MOTION_DDOT = 0

CCSDS_OMM_VERS = 2.0
CREATION_DATE  = 
ORIGINATOR     = 

OBJECT_NAME    = COSMOS 2084
OBJECT_ID      = 1990-055A
CENTER_NAME    = EARTH
REF_FRAME      = TEME
TIME_SYSTEM    = UTC
MEAN_ELEMENT_THEORY = SGP/SGP4

EPOCH          = 2026-03-01T06:53:30.124608
MEAN_MOTION    = 15.05588169
ECCENTRICITY   = .00183077
INCLINATION    = 62.7920
RA_OF_ASC_NODE = 4.2331
ARG_OF_PERICENTER = 188.0140
MEAN_ANOMALY   = 172.0671

EPHEMERIS_TYPE = 0
CLASSIFICATION_TYPE = U
NORAD_CAT_ID   = 20663
ELEMENT_SET_NO = 999
REV_AT_EPOCH   = 93505
BSTAR          = .248466E-3
MEAN_MOTION_DOT = .341E-4
MEAN_MOTION_DDOT = 0

CCSDS_OMM_VERS = 2.0
CREATION_DATE  = 
ORIGINATOR     = 

OBJECT_NAME    = SL-6 R/B(2)
OBJECT_ID      = 1990-055D
CENTER_NAME    = EARTH
REF_FRAME      = TEME
TIME_SYSTEM    = UTC
MEAN_ELEMENT_THEORY = SGP/SGP4

EPOCH          = 2026-03-01T01:24:41.785344
MEAN_MOTION    = 15.03546168
ECCENTRICITY   = .00234031
INCLINATION    = 62.7824
RA_OF_ASC_NODE = 283.2019
ARG_OF_PERICENTER = 344.8533
MEAN_ANOMALY   = 15.1862

EPHEMERIS_TYPE = 0
CLASSIFICATION_TYPE = U
NORAD_CAT_ID   = 20666
ELEMENT_SET_NO = 999
REV_AT_EPOCH   = 93689
BSTAR          = .16874683E-3
MEAN_MOTION_DOT = .2126E-4
MEAN_MOTION_DDOT = 0

CCSDS_OMM_VERS = 2.0
CREATION_DATE  = 
ORIGINATOR     = 

OBJECT_NAME    = SL-8 R/B
OBJECT_ID      = 1990-078B
CENTER_NAME    = EARTH
REF_FRAME      = TEME
TIME_SYSTEM    = UTC
MEAN_ELEMENT_THEORY = SGP/SGP4

EPOCH          = 2026-03-01T00:58:40.836288
MEAN_MOTION    = 14.88727688
ECCENTRICITY   = .03642923
INCLINATION    = 82.8997
RA_OF_ASC_NODE = 259.0891
ARG_OF_PERICENTER = 43.0325
MEAN_ANOMALY   = 319.8770

EPHEMERIS_TYPE = 0
CLASSIFICATION_TYPE = U
NORAD_CAT_ID   = 20775
ELEMENT_SET_NO = 999
REV_AT_EPOCH   = 80801
BSTAR          = .47646751E-3
MEAN_MOTION_DOT = .16227E-3
MEAN_MOTION_DDOT = 0

CCSDS_OMM_VERS = 2.0
CREATION_DATE  = 
ORIGINATOR     = 

OBJECT_NAME    = SL-8 R/B
OBJECT_ID      = 1991-006B
CENTER_NAME    = EARTH
REF_FRAME      = TEME
TIME_SYSTEM    = UTC
MEAN_ELEMENT_THEORY = SGP/SGP4

EPOCH          = 2026-03-01T07:59:56.389920
MEAN_MOTION    = 13.77493158
ECCENTRICITY   = .00234958
INCLINATION    = 82.9462
RA_OF_ASC_NODE = 176.2577
ARG_OF_PERICENTER = 60.8501
MEAN_ANOMALY   = 308.4135

EPHEMERIS_TYPE = 0
CLASSIFICATION_TYPE = U
NORAD_CAT_ID   = 21088
ELEMENT_SET_NO = 999
REV_AT_EPOCH   = 76292
BSTAR          = .25721742E-4
MEAN_MOTION_DOT = .41E-6
MEAN_MOTION_DDOT = 0

CCSDS_OMM_VERS = 2.0
CREATION_DATE  = 
ORIGINATOR     = 

OBJECT_NAME    = OKEAN-3
OBJECT_ID      = 1991-039A
CENTER_NAME    = EARTH
REF_FRAME      = TEME
TIME_SYSTEM    = UTC
MEAN_ELEMENT_THEORY = SGP/SGP4

EPOCH          = 2026-03-01T07:12:32.380128
MEAN_MOTION    = 15.04734003
ECCENTRICITY   = .00144755
INCLINATION    = 82.5201
RA_OF_ASC_NODE = 344.9686
ARG_OF_PERICENTER = 7.7229
MEAN_ANOMALY   = 352.4218

EPHEMERIS_TYPE = 0
CLASSIFICATION_TYPE = U
NORAD_CAT_ID   = 21397
ELEMENT_SET_NO = 999
REV_AT_EPOCH   = 86377
BSTAR          = .26498706E-3
MEAN_MOTION_DOT = .3767E-4
MEAN_MOTION_DDOT = 0

CCSDS_OMM_VERS = 2.0
CREATION_DATE  = 
ORIGINATOR     = 

OBJECT_NAME    = COSMOS 2151
OBJECT_ID      = 1991-042A
CENTER_NAME    = EARTH
REF_FRAME      = TEME
TIME_SYSTEM    = UTC
MEAN_ELEMENT_THEORY = SGP/SGP4

EPOCH          = 2026-03-01T06:41:07.894176
MEAN_MOTION    = 15.00066365
ECCENTRICITY   = .00141476
INCLINATION    = 82.4933
RA_OF_ASC_NODE = 91.7918
ARG_OF_PERICENTER = 88.7512
MEAN_ANOMALY   = 271.5332

EPHEMERIS_TYPE = 0
CLASSIFICATION_TYPE = U
NORAD_CAT_ID   = 21422
ELEMENT_SET_NO = 999
REV_AT_EPOCH   = 86193
BSTAR          = .15503568E-3
MEAN_MOTION_DOT = .1961E-4
MEAN_MOTION_DDOT = 0

