DELTA 2 R/B(1)          
1 20453U 90008B   26059.58054871  .00068399  00000+0  83950-3 0  9993
2 20453  35.6028 234.5751 0087339 174.1685 186.0085 15.54561026924715
COSMOS 2058             
1 20465U 90010A   26060.30555284  .00004767  00000+0  28172-3 0  9999
2 20465  82.4663  55.6879 0009969  11.2276 348.9175 15.11231216940979
SL-14 R/B               
1 20466U 90010B   26060.05371551  .00000447  00000+0  51302-4 0  9998
2 20466  82.4994 275.5028 0019096 332.4095  27.6105 14.83560199927203
SL-14 R/B               
1 20511U 90018B   26059.99572938  .00000579  00000+0  69613-4 0  9990
2 20511  82.5189 231.2166 0017535 118.3932 241.9053 14.82133420921298
HST                     
1 20580U 90037B   26060.19883699  .00008534  00000+0  28360-3 0  9992
2 20580  28.4699  97.9157 0001562  39.6890 320.3820 15.29324944772010
SL-16 R/B               
1 20625U 90046B   26060.14349024 -.00000131  00000+0 -43119-4 0  9993
2 20625  71.0007 315.8630 0016043 311.1558  48.8180 14.15015124847187
COSMOS 2084             
1 20663U 90055A   26060.28715422  .00003410  00000+0  24847-3 0  9996
2 20663  62.7920   4.2331 0018307 188.0140 172.0671 15.05588169935053
SL-6 R/B(2)             
1 20666U 90055D   26060.05881696  .00002126  00000+0  16875-3 0  9996
2 20666  62.7824 283.2019 0023403 344.8533  15.1862 15.03546168936895
SL-8 R/B                
1 20775U 90078B   26060.04075042  .00016227  00000+0  47647-3 0  9999
2 20775  82.8997 259.0891 0364292  43.0325 319.8770 14.88727688808014
SL-8 R/B                
1 21088U 91006B   26060.33329155  .00000041  00000+0  25722-4 0  9996
2 21088  82.9462 176.2577 0023495  60.8501 308.4135 13.77493158762928
OKEAN-3                 
1 21397U 91039A   26060.30037477  .00003767  00000+0  26499-3 0  9994
2 21397  82.5201 344.9686 0014475   7.7229 352.4218 15.04734003863773
COSMOS 2151             
1 21422U 91042A   26060.27856359  .00001961  00000+0  15504-3 0  9990
2 21422  82.4933  91.7918 0014147  88.7512 271.5332 15.00066365861937
